FORMOSAT 7-5            
1 44358U 19036V   26068.77147620  .00003857  00000+0  30916-3 0  9993
2 44358  23.9972 218.3817 0000871  89.5193 270.5408 14.96027232367445
STARLINK-3102           
1 49151U 21082X   26068.90957507  .00002717  00000+0  23527-3 0  9995
2 49151  69.9990 253.8920 0002303 271.2853  88.8042 14.98352504248194
